[
    {
        "Altitude(m)": 559159.3836103022,
        "Argument of Periapsis(deg)": 0.013245982221427002,
        "Eccentricity": 0.0,
        "Inclination(deg)": 53.0,
        "Latitude(deg)": 49.91521081283632,
        "Longitude(deg)": 26.35378838374071,
        "Mean Anomaly(deg)": 72.91048573515516,
        "RAAN(deg)": 64.98028673705603,
        "Satellite Name": "Starlink Shell 1 289",
        "Satellite Number": 289,
        "Semi-Major Axis(m)": 6931778.249405717,
        "Time(s)": 380
    },
    {
        "Altitude(m)": 559210.8766388171,
        "Argument of Periapsis(deg)": 0.013594560700938237,
        "Eccentricity": 0.0,
        "Inclination(deg)": 53.0,
        "Latitude(deg)": 50.13965458714545,
        "Longitude(deg)": 27.221279193076807,
        "Mean Anomaly(deg)": 73.53731693871188,
        "RAAN(deg)": 64.97976796697857,
        "Satellite Name": "Starlink Shell 1 289",
        "Satellite Number": 289,
        "Semi-Major Axis(m)": 6931778.249405717,
        "Time(s)": 390
    },
    {
        "Altitude(m)": 559260.7158498979,
        "Argument of Periapsis(deg)": 0.013943139180449475,
        "Eccentricity": 0.0,
        "Inclination(deg)": 53.0,
        "Latitude(deg)": 50.356915567618735,
        "Longitude(deg)": 28.097168916724147,
        "Mean Anomaly(deg)": 74.1641481422686,
        "RAAN(deg)": 64.9792491969011,
        "Satellite Name": "Starlink Shell 1 289",
        "Satellite Number": 289,
        "Semi-Major Axis(m)": 6931778.249405717,
        "Time(s)": 400
    },
    {
        "Altitude(m)": 559308.8710014545,
        "Argument of Periapsis(deg)": 0.014291717659960712,
        "Eccentricity": 0.0,
        "Inclination(deg)": 53.0,
        "Latitude(deg)": 50.566873265843334,
        "Longitude(deg)": 28.98132027551246,
        "Mean Anomaly(deg)": 74.7909793458253,
        "RAAN(deg)": 64.9787304268236,
        "Satellite Name": "Starlink Shell 1 289",
        "Satellite Number": 289,
        "Semi-Major Axis(m)": 6931778.249405717,
        "Time(s)": 410
    },
    {
        "Altitude(m)": 559355.3129041599,
        "Argument of Periapsis(deg)": 0.014640296139471948,
        "Eccentricity": 0.0,
        "Inclination(deg)": 53.0,
        "Latitude(deg)": 50.769408734758976,
        "Longitude(deg)": 29.87357973097699,
        "Mean Anomaly(deg)": 75.41781054938203,
        "RAAN(deg)": 64.97821165674615,
        "Satellite Name": "Starlink Shell 1 289",
        "Satellite Number": 289,
        "Semi-Major Axis(m)": 6931778.249405717,
        "Time(s)": 420
    },
    {
        "Altitude(m)": 559400.0134357909,
        "Argument of Periapsis(deg)": 0.014988874618983185,
        "Eccentricity": 0.0,
        "Inclination(deg)": 53.0,
        "Latitude(deg)": 50.96440483236751,
        "Longitude(deg)": 30.773777728662555,
        "Mean Anomaly(deg)": 76.04464175293874,
        "RAAN(deg)": 64.97769288666866,
        "Satellite Name": "Starlink Shell 1 289",
        "Satellite Number": 289,
        "Semi-Major Axis(m)": 6931778.249405717,
        "Time(s)": 430
    },
    {
        "Altitude(m)": 559442.9455550024,
        "Argument of Periapsis(deg)": 0.015337453098494424,
        "Eccentricity": 0.0,
        "Inclination(deg)": 53.0,
        "Latitude(deg)": 51.15174649233342,
        "Longitude(deg)": 31.68172899826804,
        "Mean Anomaly(deg)": 76.67147295649545,
        "RAAN(deg)": 64.97717411659119,
        "Satellite Name": "Starlink Shell 1 289",
        "Satellite Number": 289,
        "Semi-Major Axis(m)": 6931778.249405717,
        "Time(s)": 440
    },
    {
        "Altitude(m)": 559484.0833145796,
        "Argument of Periapsis(deg)": 0.01568603157800566,
        "Eccentricity": 0.0,
        "Inclination(deg)": 53.0,
        "Latitude(deg)": 51.33132100042061,
        "Longitude(deg)": 32.597231402764486,
        "Mean Anomaly(deg)": 77.2983041600522,
        "RAAN(deg)": 64.97665534651372,
        "Satellite Name": "Starlink Shell 1 289",
        "Satellite Number": 289,
        "Semi-Major Axis(m)": 6931778.249405717,
        "Time(s)": 450
    },
    {
        "Altitude(m)": 559523.4018741417,
        "Argument of Periapsis(deg)": 0.0160346100575169,
        "Eccentricity": 0.0,
        "Inclination(deg)": 53.0,
        "Latitude(deg)": 51.50301827560066,
        "Longitude(deg)": 33.520066367021336,
        "Mean Anomaly(deg)": 77.92513536360887,
        "RAAN(deg)": 64.97613657643625,
        "Satellite Name": "Starlink Shell 1 289",
        "Satellite Number": 289,
        "Semi-Major Axis(m)": 6931778.249405717,
        "Time(s)": 460
    },
    {
        "Altitude(m)": 559560.8775123106,
        "Argument of Periapsis(deg)": 0.016383188537028134,
        "Eccentricity": 0.0,
        "Inclination(deg)": 53.0,
        "Latitude(deg)": 51.666731154546454,
        "Longitude(deg)": 34.44999937755661,
        "Mean Anomaly(deg)": 78.55196656716564,
        "RAAN(deg)": 64.97561780635877,
        "Satellite Name": "Starlink Shell 1 289",
        "Satellite Number": 289,
        "Semi-Major Axis(m)": 6931778.249405717,
        "Time(s)": 470
    },
    {
        "Altitude(m)": 559596.487638308,
        "Argument of Periapsis(deg)": 0.01673176701653937,
        "Eccentricity": 0.0,
        "Inclination(deg)": 53.0,
        "Latitude(deg)": 51.822355678116196,
        "Longitude(deg)": 35.38677904464054,
        "Mean Anomaly(deg)": 79.17879777072233,
        "RAAN(deg)": 64.9750990362813,
        "Satellite Name": "Starlink Shell 1 289",
        "Satellite Number": 289,
        "Semi-Major Axis(m)": 6931778.249405717,
        "Time(s)": 480
    },
    {
        "Altitude(m)": 559630.2108029886,
        "Argument of Periapsis(deg)": 0.017080345496050607,
        "Eccentricity": 0.0,
        "Inclination(deg)": 53.0,
        "Latitude(deg)": 51.969791378340545,
        "Longitude(deg)": 36.33013775615173,
        "Mean Anomaly(deg)": 79.80562897427903,
        "RAAN(deg)": 64.97458026620383,
        "Satellite Name": "Starlink Shell 1 289",
        "Satellite Number": 289,
        "Semi-Major Axis(m)": 6931778.249405717,
        "Time(s)": 490
    },
    {
        "Altitude(m)": 559662.0267093435,
        "Argument of Periapsis(deg)": 0.017428923975561842,
        "Eccentricity": 0.0,
        "Inclination(deg)": 53.0,
        "Latitude(deg)": 52.10894156432624,
        "Longitude(deg)": 37.279792413407456,
        "Mean Anomaly(deg)": 80.43246017783575,
        "RAAN(deg)": 64.97406149612635,
        "Satellite Name": "Starlink Shell 1 289",
        "Satellite Number": 289,
        "Semi-Major Axis(m)": 6931778.249405717,
        "Time(s)": 500
    },
    {
        "Altitude(m)": 559691.9162224001,
        "Argument of Periapsis(deg)": 0.01777750245507308,
        "Eccentricity": 0.0,
        "Inclination(deg)": 53.0,
        "Latitude(deg)": 52.239713605411275,
        "Longitude(deg)": 38.23544373857203,
        "Mean Anomaly(deg)": 81.05929138139244,
        "RAAN(deg)": 64.97354272604889,
        "Satellite Name": "Starlink Shell 1 289",
        "Satellite Number": 289,
        "Semi-Major Axis(m)": 6931778.249405717,
        "Time(s)": 510
    },
    {
        "Altitude(m)": 559719.8613785647,
        "Argument of Periapsis(deg)": 0.018126080934584315,
        "Eccentricity": 0.0,
        "Inclination(deg)": 53.0,
        "Latitude(deg)": 52.36201920983828,
        "Longitude(deg)": 39.196777181083974,
        "Mean Anomaly(deg)": 81.6861225849492,
        "RAAN(deg)": 64.97302395597141,
        "Satellite Name": "Starlink Shell 1 289",
        "Satellite Number": 289,
        "Semi-Major Axis(m)": 6931778.249405717,
        "Time(s)": 520
    },
    {
        "Altitude(m)": 559745.8453944059,
        "Argument of Periapsis(deg)": 0.018474659414095554,
        "Eccentricity": 0.0,
        "Inclination(deg)": 53.0,
        "Latitude(deg)": 52.475774697230065,
        "Longitude(deg)": 40.16346391177396,
        "Mean Anomaly(deg)": 82.31295378850591,
        "RAAN(deg)": 64.97250518589394,
        "Satellite Name": "Starlink Shell 1 289",
        "Satellite Number": 289,
        "Semi-Major Axis(m)": 6931778.249405717,
        "Time(s)": 530
    },
    {
        "Altitude(m)": 559769.852674812,
        "Argument of Periapsis(deg)": 0.018823237893606792,
        "Eccentricity": 0.0,
        "Inclination(deg)": 53.0,
        "Latitude(deg)": 52.58090126288967,
        "Longitude(deg)": 41.13516039059735,
        "Mean Anomaly(deg)": 82.93978499206261,
        "RAAN(deg)": 64.97198641581647,
        "Satellite Name": "Starlink Shell 1 289",
        "Satellite Number": 289,
        "Semi-Major Axis(m)": 6931778.249405717,
        "Time(s)": 540
    },
    {
        "Altitude(m)": 559791.8688206282,
        "Argument of Periapsis(deg)": 0.019171816373118027,
        "Eccentricity": 0.0,
        "Inclination(deg)": 53.0,
        "Latitude(deg)": 52.677325232340806,
        "Longitude(deg)": 42.111509534953484,
        "Mean Anomaly(deg)": 83.56661619561932,
        "RAAN(deg)": 64.971467645739,
        "Satellite Name": "Starlink Shell 1 289",
        "Satellite Number": 289,
        "Semi-Major Axis(m)": 6931778.249405717,
        "Time(s)": 550
    },
    {
        "Altitude(m)": 559811.880635652,
        "Argument of Periapsis(deg)": 0.019520394852629266,
        "Eccentricity": 0.0,
        "Inclination(deg)": 53.0,
        "Latitude(deg)": 52.76497830410958,
        "Longitude(deg)": 43.09214197262601,
        "Mean Anomaly(deg)": 84.19344739917604,
        "RAAN(deg)": 64.97094887566152,
        "Satellite Name": "Starlink Shell 1 289",
        "Satellite Number": 289,
        "Semi-Major Axis(m)": 6931778.249405717,
        "Time(s)": 560
    }
]